{
  "type": "FeatureCollection",
  "features": [
    {
      "type": "Feature",
      "properties": {
        "norad_id": 43719,
        "name": "HYSIS",
        "group": "resource",
        "lat": 15.731380698505964,
        "lon": 39.94395876132362,
        "alt_km": 633.7009519870098,
        "timestamp": "2025-12-05T04:52:14.979473+00:00",
        "meta_object_name": "HYSIS",
        "meta_object_id": "2018-096A",
        "meta_epoch": "2025-12-04T17:25:48.955584",
        "meta_mean_motion": 14.78609268,
        "meta_eccentricity": 0.0001628,
        "meta_inclination": 98.0108,
        "meta_ra_of_asc_node": 41.743,
        "meta_arg_of_pericenter": 64.9298,
        "meta_mean_anomaly": 295.2081,
        "meta_ephemeris_type": 0,
        "meta_classification_type": "U",
        "meta_norad_cat_id": 43719,
        "meta_element_set_no": 999,
        "meta_rev_at_epoch": 37868,
        "meta_bstar": 3.555e-05,
        "meta_mean_motion_dot": 2.08e-06,
        "meta_mean_motion_ddot": 0,
        "tle_line1": "1 43719U 18096A   25338.72626106  .00000208  00000+0  35550-4 0  9990",
        "tle_line2": "2 43719  98.0108  41.7430 0001628  64.9298 295.2081 14.78609268378686"
      },
      "geometry": {
        "type": "Point",
        "coordinates": [
          39.94395876132362,
          15.731380698505964
        ]
      }
    },
    {
      "type": "Feature",
      "properties": {
        "norad_id": 43783,
        "name": "KAZSTSAT",
        "group": "resource",
        "lat": 50.96015088023224,
        "lon": 5.419501083252454,
        "alt_km": 561.6247072826882,
        "timestamp": "2025-12-05T04:52:14.979482+00:00",
        "meta_object_name": "KAZSTSAT",
        "meta_object_id": "2018-099AB",
        "meta_epoch": "2025-12-04T15:49:40.780128",
        "meta_mean_motion": 14.99310817,
        "meta_eccentricity": 0.0006413,
        "meta_inclination": 97.4553,
        "meta_ra_of_asc_node": 14.1921,
        "meta_arg_of_pericenter": 1.1963,
        "meta_mean_anomaly": 358.9275,
        "meta_ephemeris_type": 0,
        "meta_classification_type": "U",
        "meta_norad_cat_id": 43783,
        "meta_element_set_no": 999,
        "meta_rev_at_epoch": 38215,
        "meta_bstar": 0.00031062,
        "meta_mean_motion_dot": 3.74e-05,
        "meta_mean_motion_ddot": 0,
        "tle_line1": "1 43783U 18099AB  25338.65949977  .00003740  00000+0  31062-3 0  9997",
        "tle_line2": "2 43783  97.4553  14.1921 0006413   1.1963 358.9275 14.99310817382153"
      },
      "geometry": {
        "type": "Point",
        "coordinates": [
          5.419501083252454,
          50.96015088023224
        ]
      }
    },
    {
      "type": "Feature",
      "properties": {
        "norad_id": 43831,
        "name": "SAUDISAT 5A",
        "group": "resource",
        "lat": 65.68107560414076,
        "lon": -123.89369968559474,
        "alt_km": 475.0080054084028,
        "timestamp": "2025-12-05T04:52:14.979491+00:00",
        "meta_object_name": "SAUDISAT 5A",
        "meta_object_id": "2018-102A",
        "meta_epoch": "2025-12-04T18:55:53.497632",
        "meta_mean_motion": 15.25505731,
        "meta_eccentricity": 0.0011787,
        "meta_inclination": 97.3369,
        "meta_ra_of_asc_node": 39.1344,
        "meta_arg_of_pericenter": 100.4681,
        "meta_mean_anomaly": 259.7886,
        "meta_ephemeris_type": 0,
        "meta_classification_type": "U",
        "meta_norad_cat_id": 43831,
        "meta_element_set_no": 999,
        "meta_rev_at_epoch": 38601,
        "meta_bstar": 0.00053371,
        "meta_mean_motion_dot": 0.00013488,
        "meta_mean_motion_ddot": 0,
        "tle_line1": "1 43831U 18102A   25338.78881363  .00013488  00000+0  53371-3 0  9991",
        "tle_line2": "2 43831  97.3369  39.1344 0011787 100.4681 259.7886 15.25505731386013"
      },
      "geometry": {
        "type": "Point",
        "coordinates": [
          -123.89369968559474,
          65.68107560414076
        ]
      }
    },
    {
      "type": "Feature",
      "properties": {
        "norad_id": 43833,
        "name": "SAUDISAT 5B",
        "group": "resource",
        "lat": 23.75455322060907,
        "lon": -134.4794016967722,
        "alt_km": 482.6966811545235,
        "timestamp": "2025-12-05T04:52:14.979504+00:00",
        "meta_object_name": "SAUDISAT 5B",
        "meta_object_id": "2018-102C",
        "meta_epoch": "2025-12-04T18:44:50.883936",
        "meta_mean_motion": 15.25863408,
        "meta_eccentricity": 0.0012517,
        "meta_inclination": 97.3464,
        "meta_ra_of_asc_node": 41.8511,
        "meta_arg_of_pericenter": 103.1758,
        "meta_mean_anomaly": 257.0878,
        "meta_ephemeris_type": 0,
        "meta_classification_type": "U",
        "meta_norad_cat_id": 43833,
        "meta_element_set_no": 999,
        "meta_rev_at_epoch": 38612,
        "meta_bstar": 0.00052105,
        "meta_mean_motion_dot": 0.00013311,
        "meta_mean_motion_ddot": 0,
        "tle_line1": "1 43833U 18102C   25338.78114449  .00013311  00000+0  52105-3 0  9996",
        "tle_line2": "2 43833  97.3464  41.8511 0012517 103.1758 257.0878 15.25863408386126"
      },
      "geometry": {
        "type": "Point",
        "coordinates": [
          -134.4794016967722,
          23.75455322060907
        ]
      }
    },
    {
      "type": "Feature",
      "properties": {
        "norad_id": 44622,
        "name": "GAOFEN-10R",
        "group": "resource",
        "lat": -8.274833934077115,
        "lon": 105.50429338552662,
        "alt_km": 628.0616905580309,
        "timestamp": "2025-12-05T04:52:14.979513+00:00",
        "meta_object_name": "GAOFEN-10R",
        "meta_object_id": "2019-066A",
        "meta_epoch": "2025-12-04T18:18:27.546048",
        "meta_mean_motion": 14.82748485,
        "meta_eccentricity": 0.0008238,
        "meta_inclination": 98.0266,
        "meta_ra_of_asc_node": 286.2385,
        "meta_arg_of_pericenter": 63.7811,
        "meta_mean_anomaly": 296.4248,
        "meta_ephemeris_type": 0,
        "meta_classification_type": "U",
        "meta_norad_cat_id": 44622,
        "meta_element_set_no": 999,
        "meta_rev_at_epoch": 33356,
        "meta_bstar": 0.00047195,
        "meta_mean_motion_dot": 3.761e-05,
        "meta_mean_motion_ddot": 0,
        "tle_line1": "1 44622U 19066A   25338.76281882  .00003761  00000+0  47195-3 0  9998",
        "tle_line2": "2 44622  98.0266 286.2385 0008238  63.7811 296.4248 14.82748485333568"
      },
      "geometry": {
        "type": "Point",
        "coordinates": [
          105.50429338552662,
          -8.274833934077115
        ]
      }
    },
    {
      "type": "Feature",
      "properties": {
        "norad_id": 44804,
        "name": "CARTOSAT-3",
        "group": "resource",
        "lat": 79.3335284364495,
        "lon": -5.201709985549236,
        "alt_km": 492.27365415573695,
        "timestamp": "2025-12-05T04:52:14.979522+00:00",
        "meta_object_name": "CARTOSAT-3",
        "meta_object_id": "2019-081A",
        "meta_epoch": "2025-12-04T17:26:41.836704",
        "meta_mean_motion": 15.1926105,
        "meta_eccentricity": 0.0013884,
        "meta_inclination": 97.46,
        "meta_ra_of_asc_node": 38.4117,
        "meta_arg_of_pericenter": 112.2538,
        "meta_mean_anomaly": 248.0171,
        "meta_ephemeris_type": 0,
        "meta_classification_type": "U",
        "meta_norad_cat_id": 44804,
        "meta_element_set_no": 999,
        "meta_rev_at_epoch": 33394,
        "meta_bstar": 0.00036507,
        "meta_mean_motion_dot": 7.65e-05,
        "meta_mean_motion_ddot": 0,
        "tle_line1": "1 44804U 19081A   25338.72687311  .00007650  00000+0  36507-3 0  9996",
        "tle_line2": "2 44804  97.4600  38.4117 0013884 112.2538 248.0171 15.19261050333943"
      },
      "geometry": {
        "type": "Point",
        "coordinates": [
          -5.201709985549236,
          79.3335284364495
        ]
      }
    },
    {
      "type": "Feature",
      "properties": {
        "norad_id": 44819,
        "name": "GAOFEN-12 01",
        "group": "resource",
        "lat": 26.837627272985095,
        "lon": 169.6653089824917,
        "alt_km": 626.9046944152196,
        "timestamp": "2025-12-05T04:52:14.979531+00:00",
        "meta_object_name": "GAOFEN-12 01",
        "meta_object_id": "2019-082A",
        "meta_epoch": "2025-12-04T18:27:05.304960",
        "meta_mean_motion": 14.80643124,
        "meta_eccentricity": 0.0001223,
        "meta_inclination": 97.8128,
        "meta_ra_of_asc_node": 345.259,
        "meta_arg_of_pericenter": 289.0894,
        "meta_mean_anomaly": 71.0186,
        "meta_ephemeris_type": 0,
        "meta_classification_type": "U",
        "meta_norad_cat_id": 44819,
        "meta_element_set_no": 999,
        "meta_rev_at_epoch": 32532,
        "meta_bstar": 0.00013762,
        "meta_mean_motion_dot": 1.006e-05,
        "meta_mean_motion_ddot": 0,
        "tle_line1": "1 44819U 19082A   25338.76881140  .00001006  00000+0  13762-3 0  9990",
        "tle_line2": "2 44819  97.8128 345.2590 0001223 289.0894  71.0186 14.80643124325320"
      },
      "geometry": {
        "type": "Point",
        "coordinates": [
          169.6653089824917,
          26.837627272985095
        ]
      }
    }
  ]
}